{
  "norad_id": 47993,
  "name": "STARLINK-2273",
  "history": [
    {
      "epoch": "2026-03-28T15:55:16.885632Z",
      "apogee_km": 448.61176653239727,
      "perigee_km": 447.43616509086405,
      "latitude_deg": -2.470872552787616e-06,
      "longitude_deg": 142.84223862202867,
      "height_km": 448.52713540355825,
      "semi_major_axis_km": 6826.16096581163,
      "eccentricity": 8.611e-05,
      "inclination_deg": 53.1549,
      "raan_deg": 207.7432,
      "arg_perigee_deg": 47.2796,
      "mean_anomaly_deg": 312.8281,
      "mean_motion_rev_day": 15.39352121
    },
    {
      "epoch": "2026-03-30T00:38:28.749696Z",
      "apogee_km": 447.9818191422446,
      "perigee_km": 446.6307908944482,
      "latitude_deg": 1.2823398382161416e-05,
      "longitude_deg": 4.273955725615184,
      "height_km": 447.63618956036606,
      "semi_major_axis_km": 6825.443305018346,
      "eccentricity": 9.897e-05,
      "inclination_deg": 53.1556,
      "raan_deg": 201.3181,
      "arg_perigee_deg": 32.0798,
      "mean_anomaly_deg": 328.0267,
      "mean_motion_rev_day": 15.3959491
    },
    {
      "epoch": "2026-03-30T13:06:16.642944Z",
      "apogee_km": 447.7918994182055,
      "perigee_km": 446.1955013473853,
      "latitude_deg": 5.549141339105572e-05,
      "longitude_deg": 174.3662832266526,
      "height_km": 447.1842742669215,
      "semi_major_axis_km": 6825.130700382795,
      "eccentricity": 0.00011695,
      "inclination_deg": 53.1547,
      "raan_deg": 198.8718,
      "arg_perigee_deg": 26.9343,
      "mean_anomaly_deg": 333.1723,
      "mean_motion_rev_day": 15.39700686
    }
  ]
}